{
  "type": "FeatureCollection",
  "features": [
    {
      "type": "Feature",
      "properties": {
        "norad_id": 31007,
        "name": "FENGYUN 1C DEB",
        "group": "fengyun-1c-debris",
        "lat": 8.631386872255957,
        "lon": -27.443278004889915,
        "alt_km": 665.178123939073,
        "timestamp": "2025-12-07T20:38:14.343681+00:00",
        "meta_object_name": "FENGYUN 1C DEB",
        "meta_object_id": "1999-025BCZ",
        "meta_epoch": "2025-12-05T22:29:40.699968",
        "meta_mean_motion": 14.58430465,
        "meta_eccentricity": 0.00678396,
        "meta_inclination": 98.0872,
        "meta_ra_of_asc_node": 331.9227,
        "meta_arg_of_pericenter": 58.845,
        "meta_mean_anomaly": 301.9379,
        "meta_ephemeris_type": 0,
        "meta_classification_type": "U",
        "meta_norad_cat_id": 31007,
        "meta_element_set_no": 999,
        "meta_rev_at_epoch": 97995,
        "meta_bstar": 0.0032392105,
        "meta_mean_motion_dot": 0.0001549,
        "meta_mean_motion_ddot": 0,
        "tle_line1": "1 31007U 99025BCZ 25339.93727662  .00015490  00000+0  32392-2 0  9999",
        "tle_line2": "2 31007  98.0872 331.9227 0067839  58.8450 301.9379 14.58430465979958"
      },
      "geometry": {
        "type": "Point",
        "coordinates": [
          -27.443278004889915,
          8.631386872255957
        ]
      }
    },
    {
      "type": "Feature",
      "properties": {
        "norad_id": 31009,
        "name": "FENGYUN 1C DEB",
        "group": "fengyun-1c-debris",
        "lat": -38.993123720111335,
        "lon": 150.52806745885815,
        "alt_km": 866.2723365387792,
        "timestamp": "2025-12-07T20:38:14.343691+00:00",
        "meta_object_name": "FENGYUN 1C DEB",
        "meta_object_id": "1999-025BDB",
        "meta_epoch": "2025-12-06T23:17:13.398144",
        "meta_mean_motion": 14.00360131,
        "meta_eccentricity": 0.00527213,
        "meta_inclination": 98.8978,
        "meta_ra_of_asc_node": 336.9486,
        "meta_arg_of_pericenter": 253.6534,
        "meta_mean_anomaly": 163.8857,
        "meta_ephemeris_type": 0,
        "meta_classification_type": "U",
        "meta_norad_cat_id": 31009,
        "meta_element_set_no": 999,
        "meta_rev_at_epoch": 95780,
        "meta_bstar": 0.00025641786,
        "meta_mean_motion_dot": 3.41e-06,
        "meta_mean_motion_ddot": 0,
        "tle_line1": "1 31009U 99025BDB 25340.97029396  .00000341  00000+0  25642-3 0  9996",
        "tle_line2": "2 31009  98.8978 336.9486 0052721 253.6534 163.8857 14.00360131957804"
      },
      "geometry": {
        "type": "Point",
        "coordinates": [
          150.52806745885815,
          -38.993123720111335
        ]
      }
    },
    {
      "type": "Feature",
      "properties": {
        "norad_id": 31010,
        "name": "FENGYUN 1C DEB",
        "group": "fengyun-1c-debris",
        "lat": -14.419659659174378,
        "lon": -55.835327080626534,
        "alt_km": 891.2354191305067,
        "timestamp": "2025-12-07T20:38:14.343701+00:00",
        "meta_object_name": "FENGYUN 1C DEB",
        "meta_object_id": "1999-025BDC",
        "meta_epoch": "2025-12-06T08:21:29.015136",
        "meta_mean_motion": 14.25651238,
        "meta_eccentricity": 0.01131148,
        "meta_inclination": 101.728,
        "meta_ra_of_asc_node": 125.2104,
        "meta_arg_of_pericenter": 11.3716,
        "meta_mean_anomaly": 348.9969,
        "meta_ephemeris_type": 0,
        "meta_classification_type": "U",
        "meta_norad_cat_id": 31010,
        "meta_element_set_no": 999,
        "meta_rev_at_epoch": 95538,
        "meta_bstar": 0.0057393687,
        "meta_mean_motion_dot": 0.00014514,
        "meta_mean_motion_ddot": 0,
        "tle_line1": "1 31010U 99025BDC 25340.34825249  .00014514  00000+0  57394-2 0  9995",
        "tle_line2": "2 31010 101.7280 125.2104 0113114  11.3716 348.9969 14.25651238955386"
      },
      "geometry": {
        "type": "Point",
        "coordinates": [
          -55.835327080626534,
          -14.419659659174378
        ]
      }
    },
    {
      "type": "Feature",
      "properties": {
        "norad_id": 31012,
        "name": "FENGYUN 1C DEB",
        "group": "fengyun-1c-debris",
        "lat": -77.95400853475107,
        "lon": 12.53187385235613,
        "alt_km": 747.9805293800928,
        "timestamp": "2025-12-07T20:38:14.343711+00:00",
        "meta_object_name": "FENGYUN 1C DEB",
        "meta_object_id": "1999-025BDE",
        "meta_epoch": "2025-12-07T04:59:25.164096",
        "meta_mean_motion": 14.27854014,
        "meta_eccentricity": 0.00813184,
        "meta_inclination": 98.9114,
        "meta_ra_of_asc_node": 239.1958,
        "meta_arg_of_pericenter": 267.68,
        "meta_mean_anomaly": 244.8794,
        "meta_ephemeris_type": 0,
        "meta_classification_type": "U",
        "meta_norad_cat_id": 31012,
        "meta_element_set_no": 999,
        "meta_rev_at_epoch": 97668,
        "meta_bstar": 0.00036009898,
        "meta_mean_motion_dot": 8.76e-06,
        "meta_mean_motion_ddot": 0,
        "tle_line1": "1 31012U 99025BDE 25341.20793014  .00000876  00000+0  36010-3 0  9996",
        "tle_line2": "2 31012  98.9114 239.1958 0081318 267.6800 244.8794 14.27854014976688"
      },
      "geometry": {
        "type": "Point",
        "coordinates": [
          12.53187385235613,
          -77.95400853475107
        ]
      }
    },
    {
      "type": "Feature",
      "properties": {
        "norad_id": 31014,
        "name": "FENGYUN 1C DEB",
        "group": "fengyun-1c-debris",
        "lat": -44.60457503274294,
        "lon": -33.512926046438345,
        "alt_km": 924.7681747310862,
        "timestamp": "2025-12-07T20:38:14.343720+00:00",
        "meta_object_name": "FENGYUN 1C DEB",
        "meta_object_id": "1999-025BDG",
        "meta_epoch": "2025-12-07T03:58:32.171232",
        "meta_mean_motion": 13.98484877,
        "meta_eccentricity": 0.00875006,
        "meta_inclination": 98.8672,
        "meta_ra_of_asc_node": 316.959,
        "meta_arg_of_pericenter": 208.8044,
        "meta_mean_anomaly": 211.7806,
        "meta_ephemeris_type": 0,
        "meta_classification_type": "U",
        "meta_norad_cat_id": 31014,
        "meta_element_set_no": 999,
        "meta_rev_at_epoch": 95758,
        "meta_bstar": 0.00043806341,
        "meta_mean_motion_dot": 6.05e-06,
        "meta_mean_motion_ddot": 0,
        "tle_line1": "1 31014U 99025BDG 25341.16565013  .00000605  00000+0  43806-3 0  9990",
        "tle_line2": "2 31014  98.8672 316.9590 0087500 208.8044 211.7806 13.98484877957588"
      },
      "geometry": {
        "type": "Point",
        "coordinates": [
          -33.512926046438345,
          -44.60457503274294
        ]
      }
    },
    {
      "type": "Feature",
      "properties": {
        "norad_id": 31016,
        "name": "FENGYUN 1C DEB",
        "group": "fengyun-1c-debris",
        "lat": -44.536349454492715,
        "lon": 169.43332917609763,
        "alt_km": 760.5451678110703,
        "timestamp": "2025-12-07T20:38:14.343730+00:00",
        "meta_object_name": "FENGYUN 1C DEB",
        "meta_object_id": "1999-025BDJ",
        "meta_epoch": "2025-12-03T08:13:01.747776",
        "meta_mean_motion": 14.30468358,
        "meta_eccentricity": 0.0112189,
        "meta_inclination": 98.4374,
        "meta_ra_of_asc_node": 353.4483,
        "meta_arg_of_pericenter": 302.1809,
        "meta_mean_anomaly": 73.5512,
        "meta_ephemeris_type": 0,
        "meta_classification_type": "U",
        "meta_norad_cat_id": 31016,
        "meta_element_set_no": 999,
        "meta_rev_at_epoch": 97336,
        "meta_bstar": 0.00042529,
        "meta_mean_motion_dot": 1.141e-05,
        "meta_mean_motion_ddot": 0,
        "tle_line1": "1 31016U 99025BDJ 25337.34238134  .00001141  00000+0  42529-3 0  9995",
        "tle_line2": "2 31016  98.4374 353.4483 0112189 302.1809  73.5512 14.30468358973366"
      },
      "geometry": {
        "type": "Point",
        "coordinates": [
          169.43332917609763,
          -44.536349454492715
        ]
      }
    },
    {
      "type": "Feature",
      "properties": {
        "norad_id": 31017,
        "name": "FENGYUN 1C DEB",
        "group": "fengyun-1c-debris",
        "lat": -43.90014909365027,
        "lon": 139.71637808063798,
        "alt_km": 932.1965057311572,
        "timestamp": "2025-12-07T20:38:14.343740+00:00",
        "meta_object_name": "FENGYUN 1C DEB",
        "meta_object_id": "1999-025BDK",
        "meta_epoch": "2025-12-06T04:38:35.153952",
        "meta_mean_motion": 14.08805775,
        "meta_eccentricity": 0.0113514,
        "meta_inclination": 98.68,
        "meta_ra_of_asc_node": 326.565,
        "meta_arg_of_pericenter": 8.6706,
        "meta_mean_anomaly": 49.7246,
        "meta_ephemeris_type": 0,
        "meta_classification_type": "U",
        "meta_norad_cat_id": 31017,
        "meta_element_set_no": 999,
        "meta_rev_at_epoch": 96204,
        "meta_bstar": 0.00075837839,
        "meta_mean_motion_dot": 1.346e-05,
        "meta_mean_motion_ddot": 0,
        "tle_line1": "1 31017U 99025BDK 25340.19346243  .00001346  00000+0  75838-3 0  9990",
        "tle_line2": "2 31017  98.6800 326.5650 0113514   8.6706  49.7246 14.08805775962042"
      },
      "geometry": {
        "type": "Point",
        "coordinates": [
          139.71637808063798,
          -43.90014909365027
        ]
      }
    }
  ]
}